0 CBERS 1 DEB
1 31873U 99057PY  13283.07258305  .00003718  00000-0  11454-2 0  5586
2 31873 098.2763 243.3916 0005318 346.2268 013.8823 14.42009464334497
0 CBERS 1 DEB
1 31873U 99057PY  13284.11339985  .00003827  00000-0  11785-2 0  5595
2 31873 098.2769 244.4003 0005308 347.3737 012.7479 14.42018981334640
0 CBERS 1 DEB
1 31873U 99057PY  13285.70930288  .00004292  00000-0  13197-2 0  5602
2 31873 098.2798 245.9484 0004661 336.8797 023.2524 14.42035808334871
0 CBERS 1 DEB
1 31873U 99057PY  13287.09702414  .00004624  00000-0  14200-2 0  5610
2 31873 098.2774 247.2897 0005898 325.9418 034.1624 14.42051781335073
0 CBERS 1 DEB
1 31873U 99057PY  13289.10919712  .00005025  00000-0  15411-2 0  5627
2 31873 098.2816 249.2528 0005660 327.7477 032.3482 14.42074904335361
0 CBERS 1 DEB
1 31873U 99057PY  13291.12133866  .00005313  00000-0  16279-2 0  5634
2 31873 098.2822 251.2067 0005752 321.2047 038.8904 14.42098898335653
0 CBERS 1 DEB
1 31873U 99057PY  13291.67640404  .00005586  00000-0  17106-2 0  5648
2 31873 098.2783 251.7364 0004617 320.5506 039.5479 14.42107229335738
0 CBERS 1 DEB
1 31873U 99057PY  13293.13344348  .00005753  00000-0  17606-2 0  5651
2 31873 098.2776 253.1486 0005439 319.8748 040.2106 14.42125416335940
0 CBERS 1 DEB
1 31873U 99057PY  13294.65984715  .00005755  00000-0  17606-2 0  5660
2 31873 098.2811 254.6382 0004593 313.1420 046.9463 14.42143162336167
0 CBERS 1 DEB
1 31873U 99057PY  13296.11684788  .00005876  00000-0  17967-2 0  5675
2 31873 098.2807 256.0537 0003978 297.3271 062.7508 14.42161175336376
